{"fetched_at":"2026-07-05T17:36:12.600Z","source":"https://celestrak.org/NORAD/elements/gp.php?GROUP=spire&FORMAT=JSON","constellation":"spire","records":[{"OBJECT_NAME":"LEMUR-2-LEIA-PHILIP","OBJECT_ID":"2025-052AN","EPOCH":"2026-07-05T04:18:51.065280","CLASSIFICATION_TYPE":"U","MEAN_MOTION":14.97370481,"ECCENTRICITY":0.00046744,"INCLINATION":97.6815,"RA_OF_ASC_NODE":77.826,"ARG_OF_PERICENTER":146.3902,"MEAN_ANOMALY":213.7618,"EPHEMERIS_TYPE":0,"NORAD_CAT_ID":63246,"ELEMENT_SET_NO":999,"REV_AT_EPOCH":7136,"BSTAR":0.00023372075,"MEAN_MOTION_DOT":0.00002658,"MEAN_MOTION_DDOT":0},{"OBJECT_NAME":"LEMUR-2-LIA-MARTIN","OBJECT_ID":"2025-052AQ","EPOCH":"2026-07-05T04:16:56.726112","CLASSIFICATION_TYPE":"U","MEAN_MOTION":14.97963907,"ECCENTRICITY":0.00050058,"INCLINATION":97.6859,"RA_OF_ASC_NODE":78.3261,"ARG_OF_PERICENTER":115.6162,"MEAN_ANOMALY":244.5578,"EPHEMERIS_TYPE":0,"NORAD_CAT_ID":63248,"ELEMENT_SET_NO":999,"REV_AT_EPOCH":7137,"BSTAR":0.00076893065,"MEAN_MOTION_DOT":0.00009021,"MEAN_MOTION_DDOT":0},{"OBJECT_NAME":"LEMUR-2-DELOITTE-1","OBJECT_ID":"2025-052BB","EPOCH":"2026-07-05T03:46:28.229088","CLASSIFICATION_TYPE":"U","MEAN_MOTION":14.97733851,"ECCENTRICITY":0.00023033,"INCLINATION":97.6886,"RA_OF_ASC_NODE":78.6371,"ARG_OF_PERICENTER":65.5807,"MEAN_ANOMALY":294.5656,"EPHEMERIS_TYPE":0,"NORAD_CAT_ID":63259,"ELEMENT_SET_NO":999,"REV_AT_EPOCH":7138,"BSTAR":0.00056264093,"MEAN_MOTION_DOT":0.00006543,"MEAN_MOTION_DDOT":0},{"OBJECT_NAME":"LEMUR-2-EMERSONROSE","OBJECT_ID":"2025-052BD","EPOCH":"2026-07-04T15:32:29.004288","CLASSIFICATION_TYPE":"U","MEAN_MOTION":14.99220237,"ECCENTRICITY":0.00026114,"INCLINATION":97.6866,"RA_OF_ASC_NODE":78.7251,"ARG_OF_PERICENTER":75.3516,"MEAN_ANOMALY":284.7996,"EPHEMERIS_TYPE":0,"NORAD_CAT_ID":63261,"ELEMENT_SET_NO":999,"REV_AT_EPOCH":7135,"BSTAR":0.00059296517,"MEAN_MOTION_DOT":0.00007171,"MEAN_MOTION_DDOT":0},{"OBJECT_NAME":"LEMUR-2-MARACHE-FRAN","OBJECT_ID":"2025-052BE","EPOCH":"2026-07-04T22:39:49.527936","CLASSIFICATION_TYPE":"U","MEAN_MOTION":15.00265967,"ECCENTRICITY":0.00043653,"INCLINATION":97.6877,"RA_OF_ASC_NODE":79.3717,"ARG_OF_PERICENTER":301.441,"MEAN_ANOMALY":58.6386,"EPHEMERIS_TYPE":0,"NORAD_CAT_ID":63262,"ELEMENT_SET_NO":999,"REV_AT_EPOCH":7142,"BSTAR":0.00069055897,"MEAN_MOTION_DOT":0.00008595,"MEAN_MOTION_DDOT":0},{"OBJECT_NAME":"LEMUR-2-THEFALCONER","OBJECT_ID":"2025-052BG","EPOCH":"2026-07-03T23:36:20.471328","CLASSIFICATION_TYPE":"U","MEAN_MOTION":14.97503207,"ECCENTRICITY":0.00010786,"INCLINATION":97.684,"RA_OF_ASC_NODE":77.0825,"ARG_OF_PERICENTER":27.2576,"MEAN_ANOMALY":332.8702,"EPHEMERIS_TYPE":0,"NORAD_CAT_ID":63264,"ELEMENT_SET_NO":999,"REV_AT_EPOCH":7120,"BSTAR":0.0004682205,"MEAN_MOTION_DOT":0.00005402,"MEAN_MOTION_DDOT":0},{"OBJECT_NAME":"LEMUR-2-UNTITLED-SC","OBJECT_ID":"2025-061A","EPOCH":"2026-07-05T00:07:29.630784","CLASSIFICATION_TYPE":"U","MEAN_MOTION":15.13600053,"ECCENTRICITY":0.00181139,"INCLINATION":97.565,"RA_OF_ASC_NODE":161.2388,"ARG_OF_PERICENTER":198.3571,"MEAN_ANOMALY":161.7008,"EPHEMERIS_TYPE":0,"NORAD_CAT_ID":63351,"ELEMENT_SET_NO":999,"REV_AT_EPOCH":7028,"BSTAR":0.00031952263,"MEAN_MOTION_DOT":0.00005692,"MEAN_MOTION_DDOT":0},{"OBJECT_NAME":"LEMUR-2-ESPERANZA","OBJECT_ID":"2025-061B","EPOCH":"2026-07-05T05:53:46.369248","CLASSIFICATION_TYPE":"U","MEAN_MOTION":15.13702155,"ECCENTRICITY":0.00177635,"INCLINATION":97.5655,"RA_OF_ASC_NODE":161.5748,"ARG_OF_PERICENTER":196.4356,"MEAN_ANOMALY":163.6302,"EPHEMERIS_TYPE":0,"NORAD_CAT_ID":63352,"ELEMENT_SET_NO":999,"REV_AT_EPOCH":7032,"BSTAR":0.00038548276,"MEAN_MOTION_DOT":0.00006901,"MEAN_MOTION_DDOT":0},{"OBJECT_NAME":"LEMUR-2-KREMPEL-BRO2","OBJECT_ID":"2025-061C","EPOCH":"2026-07-05T00:04:27.268032","CLASSIFICATION_TYPE":"U","MEAN_MOTION":15.14131233,"ECCENTRICITY":0.00188797,"INCLINATION":97.5704,"RA_OF_ASC_NODE":161.8905,"ARG_OF_PERICENTER":190.0662,"MEAN_ANOMALY":170.0194,"EPHEMERIS_TYPE":0,"NORAD_CAT_ID":63353,"ELEMENT_SET_NO":999,"REV_AT_EPOCH":7030,"BSTAR":0.00031318318,"MEAN_MOTION_DOT":0.00005664,"MEAN_MOTION_DDOT":0},{"OBJECT_NAME":"LEMUR-2-THERMORAPTOR","OBJECT_ID":"2025-061D","EPOCH":"2026-07-05T04:22:44.230368","CLASSIFICATION_TYPE":"U","MEAN_MOTION":15.14215337,"ECCENTRICITY":0.00186603,"INCLINATION":97.5707,"RA_OF_ASC_NODE":162.1478,"ARG_OF_PERICENTER":188.081,"MEAN_ANOMALY":172.0124,"EPHEMERIS_TYPE":0,"NORAD_CAT_ID":63354,"ELEMENT_SET_NO":999,"REV_AT_EPOCH":7033,"BSTAR":0.00028185063,"MEAN_MOTION_DOT":0.00005102,"MEAN_MOTION_DDOT":0},{"OBJECT_NAME":"LEMUR-2-NEUROSPICY","OBJECT_ID":"2025-061E","EPOCH":"2026-07-04T21:19:21.380160","CLASSIFICATION_TYPE":"U","MEAN_MOTION":15.14329215,"ECCENTRICITY":0.00163835,"INCLINATION":97.5633,"RA_OF_ASC_NODE":161.4679,"ARG_OF_PERICENTER":192.3209,"MEAN_ANOMALY":167.7625,"EPHEMERIS_TYPE":0,"NORAD_CAT_ID":63355,"ELEMENT_SET_NO":999,"REV_AT_EPOCH":7029,"BSTAR":0.00032991495,"MEAN_MOTION_DOT":0.00005998,"MEAN_MOTION_DDOT":0},{"OBJECT_NAME":"LEMUR-2-TILLINFINITY","OBJECT_ID":"2025-061F","EPOCH":"2026-07-05T04:20:46.156128","CLASSIFICATION_TYPE":"U","MEAN_MOTION":15.14916489,"ECCENTRICITY":0.00180064,"INCLINATION":97.562,"RA_OF_ASC_NODE":162.0619,"ARG_OF_PERICENTER":179.3699,"MEAN_ANOMALY":180.7559,"EPHEMERIS_TYPE":0,"NORAD_CAT_ID":63356,"ELEMENT_SET_NO":999,"REV_AT_EPOCH":7036,"BSTAR":0.00027836539,"MEAN_MOTION_DOT":0.00005138,"MEAN_MOTION_DDOT":0},{"OBJECT_NAME":"LEMUR-2-KREMPEL-BRO1","OBJECT_ID":"2025-061G","EPOCH":"2026-07-04T21:25:22.681632","CLASSIFICATION_TYPE":"U","MEAN_MOTION":15.14720504,"ECCENTRICITY":0.00185738,"INCLINATION":97.5621,"RA_OF_ASC_NODE":161.686,"ARG_OF_PERICENTER":182.0507,"MEAN_ANOMALY":178.0652,"EPHEMERIS_TYPE":0,"NORAD_CAT_ID":63357,"ELEMENT_SET_NO":999,"REV_AT_EPOCH":7031,"BSTAR":0.00032376654,"MEAN_MOTION_DOT":0.00005956,"MEAN_MOTION_DDOT":0},{"OBJECT_NAME":"LEMUR-2-LANGER2SPACE","OBJECT_ID":"2025-061H","EPOCH":"2026-07-04T23:43:47.692416","CLASSIFICATION_TYPE":"U","MEAN_MOTION":15.14416285,"ECCENTRICITY":0.00163294,"INCLINATION":97.5628,"RA_OF_ASC_NODE":161.5885,"ARG_OF_PERICENTER":189.9761,"MEAN_ANOMALY":170.1149,"EPHEMERIS_TYPE":0,"NORAD_CAT_ID":63358,"ELEMENT_SET_NO":999,"REV_AT_EPOCH":7031,"BSTAR":0.00028903675,"MEAN_MOTION_DOT":0.00005259,"MEAN_MOTION_DDOT":0},{"OBJECT_NAME":"LEMUR-2-BALTO","OBJECT_ID":"2025-052BH","EPOCH":"2026-07-04T15:53:31.838784","CLASSIFICATION_TYPE":"U","MEAN_MOTION":15.00290454,"ECCENTRICITY":0.00059058,"INCLINATION":97.6925,"RA_OF_ASC_NODE":79.0708,"ARG_OF_PERICENTER":8.0852,"MEAN_ANOMALY":352.0466,"EPHEMERIS_TYPE":0,"NORAD_CAT_ID":63395,"ELEMENT_SET_NO":999,"REV_AT_EPOCH":7138,"BSTAR":0.00083081624,"MEAN_MOTION_DOT":0.00010364,"MEAN_MOTION_DDOT":0},{"OBJECT_NAME":"LEMUR-2-KRISH","OBJECT_ID":"2025-135AK","EPOCH":"2026-07-04T14:17:13.670304","CLASSIFICATION_TYPE":"U","MEAN_MOTION":14.96375761,"ECCENTRICITY":0.00015743,"INCLINATION":97.7757,"RA_OF_ASC_NODE":300.3533,"ARG_OF_PERICENTER":105.0164,"MEAN_ANOMALY":255.1231,"EPHEMERIS_TYPE":0,"NORAD_CAT_ID":64561,"ELEMENT_SET_NO":999,"REV_AT_EPOCH":5652,"BSTAR":0.0008739787,"MEAN_MOTION_DOT":0.00009848,"MEAN_MOTION_DDOT":0}]}
